STARLINK-2624           
1 48358U 21038F   26068.23955829 -.00004096  00000+0 -12629-3 0  9990
2 48358  53.1620   0.2505 0001186  92.5071 267.6066 15.30187215267000
TOMORROW-S1             
1 60479U 24149M   26068.72470524  .00008620  00000+0  28856-3 0  9996
2 60479  97.3791 149.6044 0001819 207.2040 152.9106 15.31198362 86867
